#aV2015  6 30  0  0  0.00000000     288 DD+AD WGS84 FIT  NGA
## 1851 172800.00000000   300.00000000 57203 0.0000000000000
+   31     1  2  3  4  5  6  7  9 10 11 12 13 14 15 16 17 18
+         19 20 21 22 23 24 25 26 27 28 29 30 31 32  0  0  0
+          0  0  0  0  0  0  0  0  0  0  0  0  0  0  0  0  0
+          0  0  0  0  0  0  0  0  0  0  0  0  0  0  0  0  0
+          0  0  0  0  0  0  0  0  0  0  0  0  0  0  0  0  0
++         2  2  2  2  2  2  2  2  2  2  2  2  2  2  2  2  2
++         2  2  2  2  2  2  2  2  2  2  2  2  2  2  0  0  0
++         0  0  0  0  0  0  0  0  0  0  0  0  0  0  0  0  0
++         0  0  0  0  0  0  0  0  0  0  0  0  0  0  0  0  0
++         0  0  0  0  0  0  0  0  0  0  0  0  0  0  0  0  0
%c cc cc ccc ccc cccc cccc cccc cccc ccccc ccccc ccccc ccccc
%c cc cc ccc ccc cccc cccc cccc cccc ccccc ccccc ccccc ccccc
%f  0.0000000  0.000000000  0.00000000000  0.000000000000000
%f  0.0000000  0.000000000  0.00000000000  0.000000000000000
%i    0    0    0    0      0      0      0      0         0
%i    0    0    0    0      0      0      0      0         0
/*      NGA, ST. LOUIS,MO.                                  
/*   EPHEMERIS COMPUTED FROM  1 DAYS OF DATA                
/*   EPOCHA SMOOTHER                                       
/* CCCCCCCCCCCCCCCCCCCCCCCCCCCCCCCCCCCCCCCCCCCCCCCCCCCCCCCCC
*  2015  6 30 19  0  0.00000000
P  1  13537.754689 -19975.604923  10816.897657     -3.548654                    
V  1  -1348.612345  14053.959476  27691.050730      0.005371                    
P  2 -15396.894960  -1928.767043 -21159.787606    575.366036                    
V  2   6169.790553 -27165.330509  -2418.471399      0.023697                    
P  3  19590.239453 -13560.853367 -11756.902712    358.927109                    
V  3  15074.466906  -1389.863830  26652.458655      0.057882                    
P  4  16002.276972 -11851.623935  17116.950002    -22.512487                    
V  4  -3457.760850  22396.109365  18651.140632     -0.024832                    
P  5 -25709.611990   1674.260316  -6894.345268   -223.302486                    
V  5   7615.786915  -5078.702633 -29660.784474      0.043957                    
P  6  -9232.019992 -16155.677293 -18956.130143      6.252007                    
V  6   7725.324228 -22829.822579  15687.281015      0.084329                    
P  7   5657.900760 -25574.573996   3002.422785    471.818182                    
V  7   3779.459587  -2735.766481 -31908.758844      0.022343                    
P  9   -717.683926 -19145.433498 -18394.492973   -175.749955                    
V  9  17538.494691  15510.588987 -16851.632606     -0.034222                    
P 10 -13689.789822 -11662.920934 -20061.135210   -180.824634                    
V 10  23594.253813  -6948.222664 -11880.311746     -0.014507                    
P 11  11963.004803 -16555.849314  16385.057496   -588.430160                    
V 11   4790.077869  21812.044720  18081.831700     -0.024682                    
P 12 -21912.957543  11159.149193  -9853.212562    305.952655                    
V 12 -12509.260707    714.144439  29142.552440      0.032688                    
P 13 -19715.591801  -7788.376414  15789.422597   -128.063770                    
V 13 -11125.658158 -17096.766881 -22249.026813     -0.033983                    
P 14  14330.722301  22028.412866   4639.444134     52.259145                    
V 14  -5424.435390  -2694.864644  31060.948397     -0.027275                    
P 15 -16766.311048   4713.216242  20040.964958   -257.897431                    
V 15 -18083.699242 -18253.457189 -10466.703421     -0.021199                    
P 16  25752.685260     49.555093  -7330.831780   -113.447424                    
V 16  -8652.779928   3120.809136 -30356.047673      0.039776                    
P 17 -15317.366232 -21469.813073   4283.230630   -178.179453                    
V 17   4978.008653   2296.064437  31281.587774     -0.016011                    
P 18   -739.336821  16723.454295  21083.882015    413.543472                    
V 18 -25097.517109   6139.062937  -6189.172388      0.030309                    
P 19  17346.936355   -395.559234  20041.512383   -514.729148                    
V 19  15568.907938  20503.524166 -12486.424460     -0.009789                    
P 20 -21388.510250  13567.583256   7995.341210    334.413312                    
V 20 -10982.012057    -83.549394 -28619.109788      0.032977                    
P 21  -2286.770930  25779.071449   5776.632304   -459.824182                    
V 21  -5252.137190   5411.780416 -30221.484069     -0.032678                    
P 22  12693.221147  12284.540845  20116.761503    366.359793                    
V 22 -23882.598548   7914.608507  10181.948490      0.039261                    
P 23  10463.179788 -11324.871030 -21457.319502   -118.127130                    
V 23  19520.056702  19628.112407  -1271.595604     -0.023705                    
P 24 -14334.586326  17955.384742  13160.779269     -0.517668                    
V 24   1789.613239 -16941.613688  25136.644021     -0.006229                    
P 25 -10675.865387  15690.445195 -18613.541260     -7.702059                    
V 25 -23021.025097   4596.132417  17330.310356     -0.043249                    
P 26  20296.406450   6255.127384 -15960.774562     -3.189054                    
V 26 -19110.331178   6971.047114 -21577.077794     -0.038862                    
P 27  21394.297737   8862.901460  13092.632161      0.936963                    
V 27  10232.262530  13224.551611 -25512.972695      0.027630                    
P 28  -7369.079956 -13544.702535  22257.884491    450.436871                    
V 28  26215.409043  -5030.070970   5698.677137      0.025066                    
P 29  -1858.012505  17945.167386 -19491.668037    619.764174                    
V 29 -17145.868963 -17862.026579 -14750.374307      0.021533                    
P 30  -1536.789681 -23024.080593  13078.234758    -23.103703                    
V 30   7924.137749 -14857.237812 -25276.194147      0.073401                    
P 31  10309.517538  13249.150678 -20363.804056    311.305137                    
V 31  -8854.512646  24684.797940  11829.828051     -0.012240                    
P 32  25855.282351  -4604.281014   -216.047551   -111.923659                    
V 32    882.063667   3653.540597  31785.202411      0.098600                    
EOF
